NORAD_CAT_ID,OBJECT_NAME,OBJECT_TYPE,EPOCH,MEAN_MOTION,ECCENTRICITY,INCLINATION,RA_OF_ASC_NODE,ARG_OF_PERICENTER,MEAN_ANOMALY,BSTAR,MEAN_MOTION_DOT,MEAN_MOTION_DDOT,TLE_LINE0,TLE_LINE1,TLE_LINE2,SEMIMAJOR_AXIS,PERIOD,APOGEE,PERIGEE,DECAYED
53158.0,STARLINK-4054,PAYLOAD,2023-05-28 17:41:07,15.08837495,0.0001014,53.2178,44.9109,83.2547,276.856,6.679e-05,7.75e-06,0.0,0 STARLINK-4054,1 53158U 22083AC  23148.73688990  .00000775  00000-0  66790-4 0  9996,2 53158  53.2178  44.9109 0001014  83.2547 276.8560 15.08837495 48615,6917.888,95.438,540.455,539.052,0.0
53158.0,STARLINK-4054,PAYLOAD,2023-05-28 20:51:53,15.08841156,0.0001005,53.2171,44.3153,81.509,278.6016,0.00010101,1.32e-05,0.0,0 STARLINK-4054,1 53158U 22083AC  23148.86936656  .00001320  00000-0  10101-3 0  9996,2 53158  53.2171  44.3153 0001005  81.5090 278.6016 15.08841156 48003,6917.877,95.437,540.437,539.047,0.0
53158.0,STARLINK-4054,PAYLOAD,2023-05-29 00:02:39,15.08845032,9.6e-05,53.2177,43.7221,81.1568,278.9533,0.00013141,1.805e-05,0.0,0 STARLINK-4054,1 53158U 22083AC  23149.00184376  .00001805  00000-0  13141-3 0  9992,2 53158  53.2177  43.7221 0000960  81.1568 278.9533 15.08845032 48658,6917.865,95.437,540.394,539.066,0.0
53158.0,STARLINK-4054,PAYLOAD,2023-05-29 20:42:42,15.08770419,0.0001321,53.2169,39.8586,95.0382,265.0761,0.00091851,0.00014333,0.0,0 STARLINK-4054,1 53158U 22083AC  23149.86298750  .00014333  00000-0  91851-3 0  9992,2 53158  53.2169  39.8586 0001321  95.0382 265.0761 15.08770419 48150,6918.093,95.442,540.872,539.044,0.0
53158.0,STARLINK-4054,PAYLOAD,2023-05-29 23:53:28,15.08779431,0.0001306,53.2174,39.2628,92.1767,267.9375,0.00071291,0.00011058,0.0,0 STARLINK-4054,1 53158U 22083AC  23149.99547126  .00011058  00000-0  71291-3 0  9997,2 53158  53.2174  39.2628 0001306  92.1767 267.9375 15.08779431 48802,6918.066,95.441,540.834,539.027,0.0
53158.0,STARLINK-4054,PAYLOAD,2023-05-30 22:08:50,15.08848518,0.0001036,53.2174,35.0991,85.6309,274.4801,9.277e-05,1.189e-05,0.0,0 STARLINK-4054,1 53158U 22083AC  23150.92280625  .00001189  00000-0  92770-4 0  9990,2 53158  53.2174  35.0991 0001036  85.6309 274.4801 15.08848518 48314,6917.854,95.437,540.436,539.003,0.0
53158.0,STARLINK-4054,PAYLOAD,2023-05-31 01:19:36,15.08853079,0.0001043,53.2174,34.5044,85.6743,274.4369,0.00012993,1.781e-05,0.0,0 STARLINK-4054,1 53158U 22083AC  23151.05528181  .00001781  00000-0  12993-3 0  9993,2 53158  53.2174  34.5044 0001043  85.6743 274.4369 15.08853079 48965,6917.84,95.437,540.427,538.984,0.0
53158.0,STARLINK-4054,PAYLOAD,2023-05-31 04:30:22,15.08858036,0.0001004,53.2177,33.9096,82.5589,277.5517,0.0001721,2.454e-05,0.0,0 STARLINK-4054,1 53158U 22083AC  23151.18775723  .00002454  00000-0  17210-3 0  9998,2 53158  53.2177  33.9096 0001004  82.5589 277.5517 15.08858036 48359,6917.825,95.436,540.385,538.996,0.0
53158.0,STARLINK-4054,PAYLOAD,2023-05-31 21:59:37,15.08840723,0.0001143,53.2171,30.638,87.7374,272.3749,0.00013952,1.933e-05,0.0,0 STARLINK-4054,1 53158U 22083AC  23151.91641135  .00001933  00000-0  13952-3 0  9998,2 53158  53.2171  30.6380 0001143  87.7374 272.3749 15.08840723 48462,6917.878,95.438,540.534,538.952,0.0
53158.0,STARLINK-4054,PAYLOAD,2023-06-01 01:10:23,15.08849159,0.0001152,53.2171,30.0431,96.0404,264.0719,0.00027771,4.136e-05,0.0,0 STARLINK-4054,1 53158U 22083AC  23152.04888799  .00004136  00000-0  27771-3 0  9994,2 53158  53.2171  30.0431 0001152  96.0404 264.0719 15.08849159 49110,6917.852,95.437,540.514,538.92,0.0
53158.0,STARLINK-4054,PAYLOAD,2023-06-01 21:50:24,15.0884375,0.000123,53.2174,26.1753,93.2432,266.8701,6.8123e-05,7.97e-06,0.0,0 STARLINK-4054,1 53158U 22083AC  23152.91000902  .00000797  00000-0  68123-4 0  9998,2 53158  53.2174  26.1753 0001230  93.2432 266.8701 15.08843750 49249,6917.869,95.437,540.585,538.883,0.0
53158.0,STARLINK-4054,PAYLOAD,2023-06-02 01:01:10,15.08847839,0.0001346,53.2174,25.5788,113.3612,246.7522,0.0001767,2.526e-05,0.0,0 STARLINK-4054,1 53158U 22083AC  23153.04248713  .00002526  00000-0  17670-3 0  9999,2 53158  53.2174  25.5788 0001346 113.3612 246.7522 15.08847839 48634,6917.856,95.437,540.653,538.79,0.0
53158.0,STARLINK-4054,PAYLOAD,2023-06-02 18:30:26,15.08834093,0.0001468,53.218,22.3074,114.2298,245.8848,-2.974e-05,-7.61e-06,0.0,0 STARLINK-4054,1 53158U 22083AC  23153.77113524 -.00000761  00000-0 -29740-4 0  9993,2 53158  53.2180  22.3074 0001468 114.2298 245.8848 15.08834093 49370,6917.898,95.438,540.779,538.748,0.0
53158.0,STARLINK-4054,PAYLOAD,2023-06-02 21:41:12,15.08837779,0.0001176,53.2178,21.7151,102.338,257.7744,3.2553e-05,2.3e-06,0.0,0 STARLINK-4054,1 53158U 22083AC  23153.90361522  .00000230  00000-0  32553-4 0  9996,2 53158  53.2178  21.7151 0001176 102.3380 257.7744 15.08837779 48765,6917.887,95.438,540.566,538.939,0.0
53158.0,STARLINK-4054,PAYLOAD,2023-06-03 21:31:59,15.08843436,0.0001184,53.2172,17.2567,89.71,270.4028,0.00014456,2.014e-05,0.0,0 STARLINK-4054,1 53158U 22083AC  23154.89721650  .00002014  00000-0  14456-3 0  9990,2 53158  53.2172  17.2567 0001184  89.7100 270.4028 15.08843436 48918,6917.87,95.437,540.554,538.916,0.0
53158.0,STARLINK-4054,PAYLOAD,2023-06-04 00:42:45,15.08847694,0.000119,53.2175,16.6615,88.1611,271.9517,0.00014834,2.074e-05,0.0,0 STARLINK-4054,1 53158U 22083AC  23155.02969448  .00002074  00000-0  14834-3 0  9991,2 53158  53.2175  16.6615 0001190  88.1611 271.9517 15.08847694 49566,6917.857,95.437,540.545,538.899,0.0
53158.0,STARLINK-4054,PAYLOAD,2023-06-04 18:12:00,15.08839718,0.0001175,53.217,13.3913,85.4547,274.6579,0.00013891,1.924e-05,0.0,0 STARLINK-4054,1 53158U 22083AC  23155.75833949  .00001924  00000-0  13891-3 0  9992,2 53158  53.2170  13.3913 0001175  85.4547 274.6579 15.08839718 49675,6917.881,95.438,540.559,538.933,0.0
53158.0,STARLINK-4054,PAYLOAD,2023-06-04 21:22:47,15.08834185,0.0001251,53.2172,12.7959,94.3314,265.7821,0.00053978,8.312e-05,0.0,0 STARLINK-4054,1 53158U 22083AC  23155.89082274  .00008312  00000-0  53978-3 0  9992,2 53158  53.2172  12.7959 0001251  94.3314 265.7821 15.08834185 49063,6917.898,95.438,540.629,538.898,0.0
53158.0,STARLINK-4054,PAYLOAD,2023-06-05 13:16:38,15.08841427,0.0001106,53.2168,9.8235,94.1643,265.9476,4.0497e-05,3.57e-06,0.0,0 STARLINK-4054,1 53158U 22083AC  23156.55321808  .00000357  00000-0  40497-4 0  9999,2 53158  53.2168   9.8235 0001106  94.1643 265.9476 15.08841427 49160,6917.876,95.437,540.506,538.976,0.0
53158.0,STARLINK-4054,PAYLOAD,2023-06-05 19:38:10,15.08840161,0.0001073,53.2168,8.6331,95.3425,264.7689,1.3337e-05,-7.6e-07,0.0,0 STARLINK-4054,1 53158U 22083AC  23156.81817838 -.00000076  00000-0  13337-4 0  9993,2 53158  53.2168   8.6331 0001073  95.3425 264.7689 15.08840161 49200,6917.88,95.438,540.487,539.003,0.0
53158.0,STARLINK-4054,PAYLOAD,2023-06-06 00:24:19,15.08843266,0.000107,53.2167,7.7412,92.3761,267.7354,6.7402e-05,7.85e-06,0.0,0 STARLINK-4054,1 53158U 22083AC  23157.01689655  .00000785  00000-0  67402-4 0  9998,2 53158  53.2167   7.7412 0001070  92.3761 267.7354 15.08843266 49869,6917.87,95.437,540.476,538.995,0.0
53158.0,STARLINK-4054,PAYLOAD,2023-06-06 16:18:11,15.08833079,0.0001042,53.2164,4.7669,87.1433,272.9678,-0.000109,-2.022e-05,0.0,0 STARLINK-4054,1 53158U 22083AC  23157.67930342 -.00002022  00000-0 -10900-3 0  9990,2 53158  53.2164   4.7669 0001042  87.1433 272.9678 15.08833079 49963,6917.902,95.438,540.487,539.046,0.0
53158.0,STARLINK-4054,PAYLOAD,2023-06-06 17:53:35,15.08837108,0.0001052,53.2175,4.4698,91.2668,268.8444,1.2517e-06,-2.68e-06,0.0,0 STARLINK-4054,1 53158U 22083AC  23157.74554582 -.00000268  00000-0  12517-5 0  9993,2 53158  53.2175   4.4698 0001052  91.2668 268.8444 15.08837108 49345,6917.889,95.438,540.482,539.026,0.0
53158.0,STARLINK-4054,PAYLOAD,2023-06-07 00:15:06,15.08847429,0.0001053,53.2172,3.2806,89.9005,270.2107,8.1865e-05,1.016e-05,0.0,0 STARLINK-4054,1 53158U 22083AC  23158.01049716  .00001016  00000-0  81865-4 0  9994,2 53158  53.2172   3.2806 0001053  89.9005 270.2107 15.08847429 50016,6917.858,95.437,540.451,538.994,0.0
53158.0,STARLINK-4054,PAYLOAD,2023-06-07 17:44:22,15.08835839,0.0001046,53.2179,0.0115,74.5839,285.5269,0.00010216,1.338e-05,0.0,0 STARLINK-4054,1 53158U 22083AC  23158.73914464  .00001338  00000-0  10216-3 0  9992,2 53158  53.2179   0.0115 0001046  74.5839 285.5269 15.08835839 50120,6917.893,95.438,540.482,539.034,0.0
53158.0,STARLINK-4054,PAYLOAD,2023-06-07 20:55:08,15.08837588,0.0001136,53.2178,359.4166,79.8272,280.2848,0.00014665,2.047e-05,0.0,0 STARLINK-4054,1 53158U 22083AC  23158.87162439  .00002047  00000-0  14665-3 0  9994,2 53158  53.2178 359.4166 0001136  79.8272 280.2848 15.08837588 49514,6917.888,95.438,540.539,538.967,0.0
53158.0,STARLINK-4054,PAYLOAD,2023-06-08 12:48:59,15.08840132,0.0001276,53.2165,356.4417,76.4295,283.6839,0.0001324,1.82e-05,0.0,0 STARLINK-4054,1 53158U 22083AC  23159.53402416  .00001820  00000-0  13240-3 0  9996,2 53158  53.2165 356.4417 0001276  76.4295 283.6839 15.08840132 49616,6917.88,95.438,540.628,538.862,0.0
53158.0,STARLINK-4054,PAYLOAD,2023-06-08 20:45:55,15.08847316,0.0001101,53.2168,354.9548,84.0005,276.1112,0.00016904,2.404e-05,0.0,0 STARLINK-4054,1 53158U 22083AC  23159.86522015  .00002404  00000-0  16904-3 0  9999,2 53158  53.2168 354.9548 0001101  84.0005 276.1112 15.08847316 50296,6917.858,95.437,540.485,538.961,0.0
53158.0,STARLINK-4054,PAYLOAD,2023-06-09 06:18:13,15.08845783,0.0001078,53.2167,353.1707,85.3167,274.7948,9.4338e-05,1.214e-05,0.0,0 STARLINK-4054,1 53158U 22083AC  23160.26265959  .00001214  00000-0  94338-4 0  9992,2 53158  53.2167 353.1707 0001078  85.3167 274.7948 15.08845783 49722,6917.863,95.437,540.473,538.982,0.0
53158.0,STARLINK-4054,PAYLOAD,2023-06-09 15:50:32,15.08844023,8.89e-05,53.2169,351.3861,71.622,288.4868,-1.5894e-05,-5.41e-06,0.0,0 STARLINK-4054,1 53158U 22083AC  23160.66010134 -.00000541  00000-0 -15894-4 0  9993,2 53158  53.2169 351.3861 0000889  71.6220 288.4868 15.08844023 50419,6917.868,95.437,540.348,539.118,0.0
